{
  "type": "FeatureCollection",
  "features": [
    {
      "type": "Feature",
      "properties": {
        "norad_id": 44709,
        "name": "BEIDOU-3 IGSO-3 (C40)",
        "group": "beidou",
        "lat": -55.122613722785694,
        "lon": -164.19524043537783,
        "alt_km": 35767.8234252725,
        "timestamp": "2025-12-17T23:38:07.119465+00:00",
        "meta_object_name": "BEIDOU-3 IGSO-3 (C40)",
        "meta_object_id": "2019-073A",
        "meta_epoch": "2025-11-20T07:11:22.740000",
        "meta_mean_motion": 1.00250097,
        "meta_eccentricity": 0.0044538,
        "meta_inclination": 55.163,
        "meta_ra_of_asc_node": 283.159,
        "meta_arg_of_pericenter": 191.5856,
        "meta_mean_anomaly": 168.2409,
        "meta_ephemeris_type": 0,
        "meta_classification_type": "U",
        "meta_norad_cat_id": 44709,
        "meta_element_set_no": 999,
        "meta_rev_at_epoch": 2236,
        "meta_bstar": 0,
        "meta_mean_motion_dot": -2.06e-06,
        "meta_mean_motion_ddot": 0,
        "tle_line1": "1 44709U 19073A   25324.29956875 -.00000206  00000+0  00000+0 0  9998",
        "tle_line2": "2 44709  55.1630 283.1590 0044538 191.5856 168.2409  1.00250097 22360"
      },
      "geometry": {
        "type": "Point",
        "coordinates": [
          -164.19524043537783,
          -55.122613722785694
        ]
      }
    },
    {
      "type": "Feature",
      "properties": {
        "norad_id": 44793,
        "name": "BEIDOU-3 M22 (C44)",
        "group": "beidou",
        "lat": -53.61761666047456,
        "lon": -154.66491044300497,
        "alt_km": 21541.948840423513,
        "timestamp": "2025-12-17T23:38:07.119480+00:00",
        "meta_object_name": "BEIDOU-3 M22 (C44)",
        "meta_object_id": "2019-078A",
        "meta_epoch": "2025-12-17T01:18:45.494208",
        "meta_mean_motion": 1.86232014,
        "meta_eccentricity": 0.00058951,
        "meta_inclination": 54.1043,
        "meta_ra_of_asc_node": 306.2342,
        "meta_arg_of_pericenter": 23.7577,
        "meta_mean_anomaly": 336.2562,
        "meta_ephemeris_type": 0,
        "meta_classification_type": "U",
        "meta_norad_cat_id": 44793,
        "meta_element_set_no": 999,
        "meta_rev_at_epoch": 4125,
        "meta_bstar": 0,
        "meta_mean_motion_dot": -9.2e-07,
        "meta_mean_motion_ddot": 0,
        "tle_line1": "1 44793U 19078A   25351.05469322 -.00000092  00000+0  00000+0 0  9999",
        "tle_line2": "2 44793  54.1043 306.2342 0005895  23.7577 336.2562  1.86232014 41250"
      },
      "geometry": {
        "type": "Point",
        "coordinates": [
          -154.66491044300497,
          -53.61761666047456
        ]
      }
    },
    {
      "type": "Feature",
      "properties": {
        "norad_id": 44794,
        "name": "BEIDOU-3 M21 (C43)",
        "group": "beidou",
        "lat": 7.045378963346675,
        "lon": 121.00646120860252,
        "alt_km": 21538.442876747216,
        "timestamp": "2025-12-17T23:38:07.119491+00:00",
        "meta_object_name": "BEIDOU-3 M21 (C43)",
        "meta_object_id": "2019-078B",
        "meta_epoch": "2025-12-16T15:43:55.727904",
        "meta_mean_motion": 1.86227668,
        "meta_eccentricity": 0.00041169,
        "meta_inclination": 54.078,
        "meta_ra_of_asc_node": 306.2132,
        "meta_arg_of_pericenter": 11.942,
        "meta_mean_anomaly": 348.0544,
        "meta_ephemeris_type": 0,
        "meta_classification_type": "U",
        "meta_norad_cat_id": 44794,
        "meta_element_set_no": 999,
        "meta_rev_at_epoch": 4125,
        "meta_bstar": 0,
        "meta_mean_motion_dot": -9.5e-07,
        "meta_mean_motion_ddot": 0,
        "tle_line1": "1 44794U 19078B   25350.65550611 -.00000095  00000+0  00000+0 0  9990",
        "tle_line2": "2 44794  54.0780 306.2132 0004116  11.9420 348.0544  1.86227668 41256"
      },
      "geometry": {
        "type": "Point",
        "coordinates": [
          121.00646120860252,
          7.045378963346675
        ]
      }
    },
    {
      "type": "Feature",
      "properties": {
        "norad_id": 44864,
        "name": "BEIDOU-3 M19 (C41)",
        "group": "beidou",
        "lat": 5.990168230531668,
        "lon": 72.79389742802363,
        "alt_km": 21520.352519917837,
        "timestamp": "2025-12-17T23:38:07.119503+00:00",
        "meta_object_name": "BEIDOU-3 M19 (C41)",
        "meta_object_id": "2019-090A",
        "meta_epoch": "2025-12-14T04:04:53.318784",
        "meta_mean_motion": 1.86231555,
        "meta_eccentricity": 0.00179181,
        "meta_inclination": 56.3949,
        "meta_ra_of_asc_node": 68.9134,
        "meta_arg_of_pericenter": 285.3736,
        "meta_mean_anomaly": 44.0547,
        "meta_ephemeris_type": 0,
        "meta_classification_type": "U",
        "meta_norad_cat_id": 44864,
        "meta_element_set_no": 999,
        "meta_rev_at_epoch": 4078,
        "meta_bstar": 0,
        "meta_mean_motion_dot": -8.2e-07,
        "meta_mean_motion_ddot": 0,
        "tle_line1": "1 44864U 19090A   25348.17006156 -.00000082  00000+0  00000+0 0  9992",
        "tle_line2": "2 44864  56.3949  68.9134 0017918 285.3736  44.0547  1.86231555 40784"
      },
      "geometry": {
        "type": "Point",
        "coordinates": [
          72.79389742802363,
          5.990168230531668
        ]
      }
    },
    {
      "type": "Feature",
      "properties": {
        "norad_id": 44865,
        "name": "BEIDOU-3 M20 (C42)",
        "group": "beidou",
        "lat": 55.839187604969815,
        "lon": 170.82120729693716,
        "alt_km": 21560.87033036556,
        "timestamp": "2025-12-17T23:38:07.119514+00:00",
        "meta_object_name": "BEIDOU-3 M20 (C42)",
        "meta_object_id": "2019-090B",
        "meta_epoch": "2025-12-14T14:16:43.218624",
        "meta_mean_motion": 1.86231589,
        "meta_eccentricity": 0.00151163,
        "meta_inclination": 56.3967,
        "meta_ra_of_asc_node": 68.9336,
        "meta_arg_of_pericenter": 297.6834,
        "meta_mean_anomaly": 46.2212,
        "meta_ephemeris_type": 0,
        "meta_classification_type": "U",
        "meta_norad_cat_id": 44865,
        "meta_element_set_no": 999,
        "meta_rev_at_epoch": 4077,
        "meta_bstar": 0,
        "meta_mean_motion_dot": -8.3e-07,
        "meta_mean_motion_ddot": 0,
        "tle_line1": "1 44865U 19090B   25348.59494466 -.00000083  00000+0  00000+0 0  9995",
        "tle_line2": "2 44865  56.3967  68.9336 0015116 297.6834  46.2212  1.86231589 40771"
      },
      "geometry": {
        "type": "Point",
        "coordinates": [
          170.82120729693716,
          55.839187604969815
        ]
      }
    },
    {
      "type": "Feature",
      "properties": {
        "norad_id": 45344,
        "name": "BEIDOU-3 G2 (C60)",
        "group": "beidou",
        "lat": 2.2300183000687293,
        "lon": 161.37292824877647,
        "alt_km": 35795.12215512616,
        "timestamp": "2025-12-17T23:38:07.119526+00:00",
        "meta_object_name": "BEIDOU-3 G2 (C60)",
        "meta_object_id": "2020-017A",
        "meta_epoch": "2025-12-17T15:25:10.515648",
        "meta_mean_motion": 1.002635,
        "meta_eccentricity": 0.0002583,
        "meta_inclination": 2.506,
        "meta_ra_of_asc_node": 44.0524,
        "meta_arg_of_pericenter": 247.3887,
        "meta_mean_anomaly": 106.3774,
        "meta_ephemeris_type": 0,
        "meta_classification_type": "U",
        "meta_norad_cat_id": 45344,
        "meta_element_set_no": 999,
        "meta_rev_at_epoch": 2143,
        "meta_bstar": 0,
        "meta_mean_motion_dot": -1.16e-06,
        "meta_mean_motion_ddot": 0,
        "tle_line1": "1 45344U 20017A   25351.64248282 -.00000116  00000+0  00000+0 0  9999",
        "tle_line2": "2 45344   2.5060  44.0524 0002583 247.3887 106.3774  1.00263500 21436"
      },
      "geometry": {
        "type": "Point",
        "coordinates": [
          161.37292824877647,
          2.2300183000687293
        ]
      }
    },
    {
      "type": "Feature",
      "properties": {
        "norad_id": 45807,
        "name": "BEIDOU-3 G3 (C61)",
        "group": "beidou",
        "lat": 1.6236850994733785,
        "lon": -168.0216758547344,
        "alt_km": 35812.67684508844,
        "timestamp": "2025-12-17T23:38:07.119538+00:00",
        "meta_object_name": "BEIDOU-3 G3 (C61)",
        "meta_object_id": "2020-040A",
        "meta_epoch": "2025-12-17T16:37:31.192032",
        "meta_mean_motion": 1.00271872,
        "meta_eccentricity": 0.00063902,
        "meta_inclination": 2.003,
        "meta_ra_of_asc_node": 66.627,
        "meta_arg_of_pericenter": 309.042,
        "meta_mean_anomaly": 70.8585,
        "meta_ephemeris_type": 0,
        "meta_classification_type": "U",
        "meta_norad_cat_id": 45807,
        "meta_element_set_no": 999,
        "meta_rev_at_epoch": 2025,
        "meta_bstar": 0,
        "meta_mean_motion_dot": -3.31e-06,
        "meta_mean_motion_ddot": 0,
        "tle_line1": "1 45807U 20040A   25351.69272213 -.00000331  00000+0  00000+0 0  9994",
        "tle_line2": "2 45807   2.0030  66.6270 0006390 309.0420  70.8585  1.00271872 20254"
      },
      "geometry": {
        "type": "Point",
        "coordinates": [
          -168.0216758547344,
          1.6236850994733785
        ]
      }
    }
  ]
}